[{"OBJECT_NAME":"STARLINK-4513","OBJECT_ID":"2022-101X","EPOCH":"2026-03-09T06:43:11.031456","MEAN_MOTION":15.08836724,"ECCENTRICITY":0.00012967,"INCLINATION":53.2166,"RA_OF_ASC_NODE":65.9596,"ARG_OF_PERICENTER":87.0326,"MEAN_ANOMALY":273.0814,"EPHEMERIS_TYPE":0,"CLASSIFICATION_TYPE":"U","NORAD_CAT_ID":53548,"ELEMENT_SET_NO":999,"REV_AT_EPOCH":19624,"BSTAR":-1.8608743e-5,"MEAN_MOTION_DOT":-5.84e-6,"MEAN_MOTION_DDOT":0},{"OBJECT_NAME":"CZ-2D DEB","OBJECT_ID":"2017-060C","EPOCH":"2026-03-09T12:36:22.356864","MEAN_MOTION":15.07716497,"ECCENTRICITY":0.0018685,"INCLINATION":98.2453,"RA_OF_ASC_NODE":267.9231,"ARG_OF_PERICENTER":71.2095,"MEAN_ANOMALY":289.1156,"EPHEMERIS_TYPE":0,"CLASSIFICATION_TYPE":"U","NORAD_CAT_ID":44610,"ELEMENT_SET_NO":999,"REV_AT_EPOCH":45422,"BSTAR":0.00057216024,"MEAN_MOTION_DOT":8.702e-5,"MEAN_MOTION_DDOT":0}]
